NORAD_CAT_ID,OBJECT_NAME,OBJECT_TYPE,EPOCH,MEAN_MOTION,ECCENTRICITY,INCLINATION,RA_OF_ASC_NODE,ARG_OF_PERICENTER,MEAN_ANOMALY,BSTAR,MEAN_MOTION_DOT,MEAN_MOTION_DDOT,TLE_LINE0,TLE_LINE1,TLE_LINE2,SEMIMAJOR_AXIS,PERIOD,APOGEE,PERIGEE,DECAYED
50158.0,STARLINK-3309,PAYLOAD,2023-06-11 21:13:16,15.08914624,0.000196,53.2176,76.4068,69.5138,290.6064,-0.0010519,-0.00017025,0.0,0 STARLINK-3309,1 50158U 21125C   23162.88422381 -.00017025  00000-0 -10519-2 0  9995,2 50158  53.2176  76.4068 0001960  69.5138 290.6064 15.08914624 85284,6917.652,95.433,540.873,538.161,0.0
50158.0,STARLINK-3309,PAYLOAD,2023-06-12 11:31:46,15.08841666,0.0001283,53.2176,73.7317,85.2653,274.8485,7.4619e-05,9e-06,0.0,0 STARLINK-3309,1 50158U 21125C   23163.48040429  .00000900  00000-0  74619-4 0  9996,2 50158  53.2176  73.7317 0001283  85.2653 274.8485 15.08841666 85372,6917.875,95.437,540.628,538.853,0.0
50158.0,STARLINK-3309,PAYLOAD,2023-06-13 00:14:52,15.08838552,0.0001342,53.2177,71.3532,84.1724,275.9422,0.0001582,2.231e-05,0.0,0 STARLINK-3309,1 50158U 21125C   23164.01032458  .00002231  00000-0  15820-3 0  9996,2 50158  53.2177  71.3532 0001342  84.1724 275.9422 15.08838552 85451,6917.885,95.438,540.678,538.821,0.0
50158.0,STARLINK-3309,PAYLOAD,2023-06-14 00:05:39,15.08841318,0.0001312,53.2163,66.8928,80.2686,279.8454,2.2716e-05,7.4e-07,0.0,0 STARLINK-3309,1 50158U 21125C   23165.00392503  .00000074  00000-0  22716-4 0  9992,2 50158  53.2163  66.8928 0001312  80.2686 279.8454 15.08841318 82454,6917.876,95.437,540.649,538.834,0.0
50158.0,STARLINK-3309,PAYLOAD,2023-06-14 03:16:25,15.08843442,0.0001228,53.2174,66.2974,81.3163,278.7968,7.9069e-05,9.71e-06,0.0,0 STARLINK-3309,1 50158U 21125C   23165.13640237  .00000971  00000-0  79069-4 0  9995,2 50158  53.2174  66.2974 0001228  81.3163 278.7968 15.08843442 85629,6917.87,95.437,540.584,538.885,0.0
50158.0,STARLINK-3309,PAYLOAD,2023-06-14 17:34:53,15.08837671,0.0001139,53.2177,63.6189,88.827,271.2852,1.9517e-05,2.3e-07,0.0,0 STARLINK-3309,1 50158U 21125C   23165.73256725  .00000023  00000-0  19517-4 0  9996,2 50158  53.2177  63.6189 0001139  88.8270 271.2852 15.08837671 85710,6917.888,95.438,540.54,538.965,0.0
50158.0,STARLINK-3309,PAYLOAD,2023-06-15 01:31:49,15.08839768,0.0001213,53.2167,62.1339,91.4344,268.6787,4.7169e-05,4.63e-06,0.0,0 STARLINK-3309,1 50158U 21125C   23166.06376486  .00000463  00000-0  47169-4 0  9992,2 50158  53.2167  62.1339 0001213  91.4344 268.6787 15.08839768 82617,6917.881,95.438,540.585,538.907,0.0
50158.0,STARLINK-3309,PAYLOAD,2023-06-15 17:25:40,15.08837452,0.0001112,53.2166,59.1609,84.3899,275.722,4.387e-05,4.1e-06,0.0,0 STARLINK-3309,1 50158U 21125C   23166.72616723  .00000410  00000-0  43870-4 0  9993,2 50158  53.2166  59.1609 0001112  84.3899 275.7220 15.08837452 85865,6917.888,95.438,540.522,538.984,0.0
50158.0,STARLINK-3309,PAYLOAD,2023-06-16 09:19:31,15.08847643,0.0001035,53.2175,56.186,82.0888,278.0222,8.9263e-05,1.133e-05,0.0,0 STARLINK-3309,1 50158U 21125C   23167.38855901  .00001133  00000-0  89263-4 0  9998,2 50158  53.2175  56.1860 0001035  82.0888 278.0222 15.08847643 82811,6917.857,95.437,540.438,539.006,0.0
50158.0,STARLINK-3309,PAYLOAD,2023-06-16 17:16:27,15.08841254,0.000101,53.2178,54.6995,87.1801,272.9306,6.2278e-05,7.04e-06,0.0,0 STARLINK-3309,1 50158U 21125C   23167.71976349  .00000704  00000-0  62278-4 0  9995,2 50158  53.2178  54.6995 0001010  87.1801 272.9306 15.08841254 86014,6917.877,95.437,540.44,539.043,0.0
50158.0,STARLINK-3309,PAYLOAD,2023-06-17 09:10:19,15.08828103,0.0001487,53.2165,51.7229,79.1106,281.0054,-2.8921e-05,-7.48e-06,0.0,0 STARLINK-3309,1 50158U 21125C   23168.38217493 -.00000748  00000-0 -28921-4 0  9994,2 50158  53.2165  51.7229 0001487  79.1106 281.0054 15.08828103 82964,6917.917,95.438,540.81,538.753,0.0
50158.0,STARLINK-3309,PAYLOAD,2023-06-17 17:07:16,15.08823593,0.0001114,53.2177,50.239,99.6069,260.5049,-0.00013473,-2.43e-05,0.0,0 STARLINK-3309,1 50158U 21125C   23168.71338256 -.00002430  00000-0 -13473-3 0  9997,2 50158  53.2177  50.2390 0001114  99.6069 260.5049 15.08823593 83013,6917.931,95.439,540.566,539.025,0.0
50158.0,STARLINK-3309,PAYLOAD,2023-06-18 09:01:07,15.08835652,0.0001043,53.2184,47.2652,95.2866,264.8245,-3.1889e-05,-7.95e-06,0.0,0 STARLINK-3309,1 50158U 21125C   23169.37577668 -.00000795  00000-0 -31889-4 0  9996,2 50158  53.2184  47.2652 0001043  95.2866 264.8245 15.08835652 83111,6917.894,95.438,540.48,539.037,0.0
50158.0,STARLINK-3309,PAYLOAD,2023-06-19 00:54:57,15.08848827,9.77e-05,53.2185,44.2927,96.0211,264.0892,0.00012008,1.624e-05,0.0,0 STARLINK-3309,1 50158U 21125C   23170.03816564  .00001624  00000-0  12008-3 0  9993,2 50158  53.2185  44.2927 0000977  96.0211 264.0892 15.08848827 83211,6917.853,95.437,540.394,539.043,0.0
50158.0,STARLINK-3309,PAYLOAD,2023-06-19 08:51:53,15.08843052,9.6e-05,53.2174,42.8058,93.1588,266.9514,0.00011305,1.512e-05,0.0,0 STARLINK-3309,1 50158U 21125C   23170.36937174  .00001512  00000-0  11305-3 0  9995,2 50158  53.2174  42.8058 0000960  93.1588 266.9514 15.08843052 83267,6917.871,95.437,540.4,539.072,0.0
50158.0,STARLINK-3309,PAYLOAD,2023-06-20 08:42:41,15.08840061,0.0001171,53.2172,38.3434,97.6794,262.4331,0.00017162,2.445e-05,0.0,0 STARLINK-3309,1 50158U 21125C   23171.36297731  .00002445  00000-0  17162-3 0  9997,2 50158  53.2172  38.3434 0001171  97.6794 262.4331 15.08840061 83418,6917.88,95.438,540.555,538.935,0.0
50158.0,STARLINK-3309,PAYLOAD,2023-06-20 19:50:22,15.08846279,0.0001026,53.2172,36.2629,92.6526,267.4583,0.00013761,1.903e-05,0.0,0 STARLINK-3309,1 50158U 21125C   23171.82665265  .00001903  00000-0  13761-3 0  9998,2 50158  53.2172  36.2629 0001026  92.6526 267.4583 15.08846279 86636,6917.861,95.437,540.436,539.016,0.0
50158.0,STARLINK-3309,PAYLOAD,2023-06-21 00:36:32,15.08850195,9.63e-05,53.2177,35.3712,91.7784,268.3318,0.00015169,2.128e-05,0.0,0 STARLINK-3309,1 50158U 21125C   23172.02537039  .00002128  00000-0  15169-3 0  9992,2 50158  53.2177  35.3712 0000963  91.7784 268.3318 15.08850195 83511,6917.849,95.437,540.38,539.048,0.0
50158.0,STARLINK-3309,PAYLOAD,2023-06-21 18:05:46,15.08841288,9.29e-05,53.2173,32.0993,95.006,265.1038,7.9844e-05,9.83e-06,0.0,0 STARLINK-3309,1 50158U 21125C   23172.75401426  .00000983  00000-0  79844-4 0  9990,2 50158  53.2173  32.0993 0000929  95.0060 265.1038 15.08841288 83627,6917.876,95.437,540.384,539.099,0.0
50158.0,STARLINK-3309,PAYLOAD,2023-06-21 19:41:09,15.08842456,9.35e-05,53.2174,31.8021,95.1707,264.9392,9.4601e-05,1.218e-05,0.0,0 STARLINK-3309,1 50158U 21125C   23172.82025360  .00001218  00000-0  94601-4 0  9997,2 50158  53.2174  31.8021 0000935  95.1707 264.9392 15.08842456 86781,6917.873,95.437,540.385,539.091,0.0
50158.0,STARLINK-3309,PAYLOAD,2023-06-23 00:18:06,15.08846875,9.7e-05,53.2177,26.4496,93.2371,266.8732,9.2672e-05,1.188e-05,0.0,0 STARLINK-3309,1 50158U 21125C   23174.01257042  .00001188  00000-0  92672-4 0  9996,2 50158  53.2177  26.4496 0000970  93.2371 266.8732 15.08846875 83814,6917.859,95.437,540.395,539.053,0.0
50158.0,STARLINK-3309,PAYLOAD,2023-06-23 17:47:21,15.08837579,0.0001098,53.2184,23.1796,82.6468,277.4649,8.8323e-06,-1.47e-06,0.0,0 STARLINK-3309,1 50158U 21125C   23174.74121850 -.00000147  00000-0  88323-5 0  9997,2 50158  53.2184  23.1796 0001098  82.6468 277.4649 15.08837579 83928,6917.888,95.438,540.512,538.993,0.0
50158.0,STARLINK-3309,PAYLOAD,2023-06-24 00:08:53,15.08844542,0.0001,53.2182,21.9915,83.2407,276.8699,5.6811e-05,6.17e-06,0.0,0 STARLINK-3309,1 50158U 21125C   23175.00617258  .00000617  00000-0  56811-4 0  9996,2 50158  53.2182  21.9915 0001000  83.2407 276.8699 15.08844542 83968,6917.867,95.437,540.423,539.04,0.0
50158.0,STARLINK-3309,PAYLOAD,2023-06-24 06:30:26,15.08837564,9.2e-05,53.2181,20.8009,69.514,290.5951,2.8087e-05,1.59e-06,0.0,0 STARLINK-3309,1 50158U 21125C   23175.27113884  .00000159  00000-0  28087-4 0  9996,2 50158  53.2181  20.8009 0000920  69.5140 290.5951 15.08837564 84006,6917.888,95.438,540.389,539.116,0.0
50158.0,STARLINK-3309,PAYLOAD,2023-06-24 23:59:40,15.08845889,8.61e-05,53.2177,17.53,92.9996,267.1094,9.2238e-05,1.181e-05,0.0,0 STARLINK-3309,1 50158U 21125C   23175.99977304  .00001181  00000-0  92238-4 0  9995,2 50158  53.2177  17.5300 0000861  92.9996 267.1094 15.08845889 84110,6917.862,95.437,540.323,539.132,0.0
50158.0,STARLINK-3309,PAYLOAD,2023-06-25 06:21:13,15.08838724,8.28e-05,53.2176,16.3395,81.3086,278.8,3.9249e-05,3.37e-06,0.0,0 STARLINK-3309,1 50158U 21125C   23176.26473900  .00000337  00000-0  39249-4 0  9994,2 50158  53.2176  16.3395 0000828  81.3086 278.8000 15.08838724 84155,6917.884,95.438,540.322,539.176,0.0
50158.0,STARLINK-3309,PAYLOAD,2023-06-25 22:15:04,15.08845758,9.21e-05,53.2179,13.3663,85.4911,274.6187,0.00013472,1.857e-05,0.0,0 STARLINK-3309,1 50158U 21125C   23176.92713386  .00001857  00000-0  13472-3 0  9999,2 50158  53.2179  13.3663 0000921  85.4911 274.6187 15.08845758 84255,6917.863,95.437,540.365,539.091,0.0
50158.0,STARLINK-3309,PAYLOAD,2023-06-26 20:30:28,15.08842499,9.13e-05,53.2182,9.2034,97.1288,262.9808,3.8087e-05,3.19e-06,0.0,0 STARLINK-3309,1 50158U 21125C   23177.85449989  .00000319  00000-0  38087-4 0  9999,2 50158  53.2182   9.2034 0000913  97.1288 262.9808 15.08842499 84397,6917.873,95.437,540.369,539.106,0.0
50158.0,STARLINK-3309,PAYLOAD,2023-06-27 20:21:15,15.08851468,8.71e-05,53.2183,4.7436,100.5111,259.5979,8.5293e-05,1.07e-05,0.0,0 STARLINK-3309,1 50158U 21125C   23178.84809239  .00001070  00000-0  85293-4 0  9993,2 50158  53.2183   4.7436 0000871 100.5111 259.5979 15.08851468 84545,6917.845,95.437,540.313,539.108,0.0
50158.0,STARLINK-3309,PAYLOAD,2023-06-28 05:53:34,15.08843375,7.15e-05,53.2171,2.9597,105.4778,254.6293,9.8233e-06,-1.31e-06,0.0,0 STARLINK-3309,1 50158U 21125C   23179.24553695 -.00000131  00000-0  98233-5 0  9997,2 50158  53.2171   2.9597 0000715 105.4778 254.6293 15.08843375 84600,6917.87,95.437,540.23,539.24,0.0
